NORAD_CAT_ID,OBJECT_NAME,OBJECT_TYPE,EPOCH,MEAN_MOTION,ECCENTRICITY,INCLINATION,RA_OF_ASC_NODE,ARG_OF_PERICENTER,MEAN_ANOMALY,BSTAR,MEAN_MOTION_DOT,MEAN_MOTION_DDOT,TLE_LINE0,TLE_LINE1,TLE_LINE2,SEMIMAJOR_AXIS,PERIOD,APOGEE,PERIGEE,DECAYED
55746.0,STARLINK-5579,PAYLOAD,2023-12-27 14:01:56,14.98334468,0.000256,69.9998,109.3344,271.1566,88.93,0.00016487,1.875e-05,0.0,0 STARLINK-5579,1 55746U 23028F   23361.58467838  .00001875  00000-0  16487-3 0  9996,2 55746  69.9998 109.3344 0002560 271.1566  88.9300 14.98334468 45742,6950.179,96.107,573.823,570.265,0.0
55746.0,STARLINK-5579,PAYLOAD,2023-12-27 17:14:11,14.98344691,0.0002872,69.9998,109.0006,268.4234,91.6596,0.00020451,2.349e-05,0.0,0 STARLINK-5579,1 55746U 23028F   23361.71818936  .00002349  00000-0  20451-3 0  9993,2 55746  69.9998 109.0006 0002872 268.4234  91.6596 14.98344691 45760,6950.147,96.106,574.009,570.016,0.0
55746.0,STARLINK-5579,PAYLOAD,2023-12-28 12:27:49,14.98328701,0.0002829,70.0001,106.9805,264.8244,95.2593,7.6764e-05,8.23e-06,0.0,0 STARLINK-5579,1 55746U 23028F   23362.51932280  .00000823  00000-0  76764-4 0  9995,2 55746  70.0001 106.9805 0002829 264.8244  95.2593 14.98328701 45888,6950.197,96.107,574.028,570.096,0.0
55746.0,STARLINK-5579,PAYLOAD,2023-12-28 14:03:57,14.98331139,0.0002987,69.9996,106.8126,267.437,92.6447,0.00010386,1.146e-05,0.0,0 STARLINK-5579,1 55746U 23028F   23362.58608009  .00001146  00000-0  10386-3 0  9997,2 55746  69.9996 106.8126 0002987 267.4370  92.6447 14.98331139 45896,6950.189,96.107,574.13,569.978,0.0
55746.0,STARLINK-5579,PAYLOAD,2023-12-28 17:16:13,14.98331892,0.0002877,70.0001,106.4766,265.4627,94.6203,0.00010733,1.188e-05,0.0,0 STARLINK-5579,1 55746U 23028F   23362.71959928  .00001188  00000-0  10733-3 0  9993,2 55746  70.0001 106.4766 0002877 265.4627  94.6203 14.98331892 45914,6950.187,96.107,574.052,570.052,0.0
55746.0,STARLINK-5579,PAYLOAD,2023-12-29 14:05:58,14.98336559,0.0002797,70.0002,104.2868,266.9962,93.0877,-0.00010758,-1.377e-05,0.0,0 STARLINK-5579,1 55746U 23028F   23363.58747892 -.00001377  00000-0 -10758-3 0  9993,2 55746  70.0002 104.2868 0002797 266.9962  93.0877 14.98336559 46043,6950.173,96.107,573.982,570.094,0.0
55746.0,STARLINK-5579,PAYLOAD,2023-12-29 17:18:13,14.98342573,0.0003086,70.0001,103.9505,273.6995,86.3811,-3.8196e-05,-5.49e-06,0.0,0 STARLINK-5579,1 55746U 23028F   23363.72099258 -.00000549  00000-0 -38196-4 0  9992,2 55746  70.0001 103.9505 0003086 273.6995  86.3811 14.98342573 46067,6950.154,96.106,574.164,569.874,0.0
55746.0,STARLINK-5579,PAYLOAD,2023-12-30 10:55:42,14.98331656,0.0002851,70.0005,102.099,265.5583,94.525,3.0238e-05,2.68e-06,0.0,0 STARLINK-5579,1 55746U 23028F   23364.45535409  .00000268  00000-0  30238-4 0  9991,2 55746  70.0005 102.0990 0002851 265.5583  94.5250 14.98331656 46171,6950.188,96.107,574.034,570.071,0.0
55746.0,STARLINK-5579,PAYLOAD,2023-12-30 14:07:58,14.98331903,0.0002859,70.0004,101.7622,265.9398,94.1435,3.8248e-05,3.63e-06,0.0,0 STARLINK-5579,1 55746U 23028F   23364.58887355  .00000363  00000-0  38248-4 0  9990,2 55746  70.0004 101.7622 0002859 265.9398  94.1435 14.98331903 46192,6950.187,96.107,574.039,570.065,0.0
55746.0,STARLINK-5579,PAYLOAD,2023-12-30 15:44:08,14.98312562,0.0003011,70.0006,101.5944,264.8645,95.217,-0.00018592,-2.31e-05,0.0,0 STARLINK-5579,1 55746U 23028F   23364.65564990 -.00002310  00000-0 -18592-3 0  9990,2 55746  70.0006 101.5944 0003011 264.8645  95.2170 14.98312562 46203,6950.247,96.108,574.205,570.019,0.0
55746.0,STARLINK-5579,PAYLOAD,2023-12-31 10:57:43,14.98324912,0.0002777,70.0005,99.5744,262.8264,97.2579,-2.764e-05,-4.23e-06,0.0,0 STARLINK-5579,1 55746U 23028F   23365.45675893 -.00000423  00000-0 -27640-4 0  9992,2 55746  70.0005  99.5744 0002777 262.8264  97.2579 14.98324912 46329,6950.209,96.107,574.004,570.144,0.0
55746.0,STARLINK-5579,PAYLOAD,2023-12-31 15:46:08,14.98324776,0.0002835,70.0004,99.0694,263.4657,96.6179,-3.4075e-05,-4.99e-06,0.0,0 STARLINK-5579,1 55746U 23028F   23365.65703971 -.00000499  00000-0 -34075-4 0  9996,2 55746  70.0004  99.0694 0002835 263.4657  96.6179 14.98324776 46355,6950.209,96.107,574.044,570.104,0.0
55746.0,STARLINK-5579,PAYLOAD,2024-01-01 10:59:44,14.98331376,0.0003059,69.9999,97.0496,268.4816,91.5993,-3.0545e-05,-4.57e-06,0.0,0 STARLINK-5579,1 55746U 23028F   24001.45815568 -.00000457  00000-0 -30545-4 0  9990,2 55746  69.9999  97.0496 0003059 268.4816  91.5993 14.98331376 46479,6950.189,96.107,574.18,569.928,0.0
55746.0,STARLINK-5579,PAYLOAD,2024-01-01 14:12:00,14.98360503,0.0002622,70.0013,96.7148,252.2645,107.8228,-0.00050095,-6.07e-05,0.0,0 STARLINK-5579,1 55746U 23028F   24001.59166839 -.00006070  00000-0 -50095-3 0  9993,2 55746  70.0013  96.7148 0002622 252.2645 107.8228 14.98360503 46493,6950.099,96.105,573.786,570.141,0.0
55746.0,STARLINK-5579,PAYLOAD,2024-01-01 15:48:08,14.98360791,0.0002653,70.0011,96.5461,254.1244,105.9623,-0.00051578,-6.246e-05,0.0,0 STARLINK-5579,1 55746U 23028F   24001.65842754 -.00006246  00000-0 -51578-3 0  9999,2 55746  70.0011  96.5461 0002653 254.1244 105.9623 14.98360791 46506,6950.098,96.105,573.807,570.119,0.0
55746.0,STARLINK-5579,PAYLOAD,2024-01-02 11:01:45,14.98330467,0.0003043,69.9999,94.5248,267.0739,93.0072,7.5402e-05,8.07e-06,0.0,0 STARLINK-5579,1 55746U 23028F   24002.45955181  .00000807  00000-0  75402-4 0  9995,2 55746  69.9999  94.5248 0003043 267.0739  93.0072 14.98330467 46620,6950.191,96.107,574.171,569.942,0.0
55746.0,STARLINK-5579,PAYLOAD,2024-01-02 14:14:01,14.98331812,0.0003031,70.0,94.1885,267.3065,92.7748,8.7341e-05,9.49e-06,0.0,0 STARLINK-5579,1 55746U 23028F   24002.59307049  .00000949  00000-0  87341-4 0  9996,2 55746  70.0000  94.1885 0003031 267.3065  92.7748 14.98331812 46644,6950.187,96.107,574.159,569.946,0.0
55746.0,STARLINK-5579,PAYLOAD,2024-01-02 15:50:09,14.98332578,0.0003032,70.0001,94.0202,267.3426,92.7386,9.2986e-05,1.017e-05,0.0,0 STARLINK-5579,1 55746U 23028F   24002.65982975  .00001017  00000-0  92986-4 0  9998,2 55746  70.0001  94.0202 0003032 267.3426  92.7386 14.98332578 46658,6950.185,96.107,574.157,569.943,0.0
55746.0,STARLINK-5579,PAYLOAD,2024-01-03 11:03:46,14.98324774,0.0002641,70.0013,92.0021,254.1524,105.9344,-5.4633e-05,-7.45e-06,0.0,0 STARLINK-5579,1 55746U 23028F   24003.46095948 -.00000745  00000-0 -54633-4 0  9999,2 55746  70.0013  92.0021 0002641 254.1524 105.9344 14.98324774 46779,6950.209,96.107,573.91,570.239,0.0
55746.0,STARLINK-5579,PAYLOAD,2024-01-03 14:16:03,14.98323198,0.0002678,70.0009,91.6641,263.1052,96.9803,-1.4664e-05,-2.68e-06,0.0,0 STARLINK-5579,1 55746U 23028F   24003.59448024 -.00000268  00000-0 -14664-4 0  9990,2 55746  70.0009  91.6641 0002678 263.1052  96.9803 14.98323198 46793,6950.214,96.107,573.94,570.218,0.0
55746.0,STARLINK-5579,PAYLOAD,2024-01-03 15:52:11,14.98323042,0.0002684,70.0008,91.4955,263.814,96.2714,-1.769e-05,-3.04e-06,0.0,0 STARLINK-5579,1 55746U 23028F   24003.66124068 -.00000304  00000-0 -17690-4 0  9990,2 55746  70.0008  91.4955 0002684 263.8140  96.2714 14.98323042 46804,6950.214,96.107,573.945,570.214,0.0
55746.0,STARLINK-5579,PAYLOAD,2024-01-04 04:41:15,14.98331537,0.0002769,70.0007,90.149,265.0407,95.0436,-1.2023e-05,-2.36e-06,0.0,0 STARLINK-5579,1 55746U 23028F   24004.19531511 -.00000236  00000-0 -12023-4 0  9993,2 55746  70.0007  90.1490 0002769 265.0407  95.0436 14.98331537 46881,6950.188,96.107,573.978,570.129,0.0
55746.0,STARLINK-5579,PAYLOAD,2024-01-04 14:18:03,14.98331172,0.0002748,70.0007,89.1384,266.0325,94.052,-5.8576e-06,-1.63e-06,0.0,0 STARLINK-5579,1 55746U 23028F   24004.59587515 -.00000163  00000-0 -58576-5 0  9995,2 55746  70.0007  89.1384 0002748 266.0325  94.0520 14.98331172 46943,6950.189,96.107,573.964,570.144,0.0
55746.0,STARLINK-5579,PAYLOAD,2024-01-04 15:54:11,14.98335118,0.0002883,70.0012,88.9736,247.7953,112.29,2.8557e-05,2.48e-06,0.0,0 STARLINK-5579,1 55746U 23028F   24004.66263092  .00000248  00000-0  28557-4 0  9991,2 55746  70.0012  88.9736 0002883 247.7953 112.2900 14.98335118 46950,6950.177,96.107,574.046,570.038,0.0
55746.0,STARLINK-5579,PAYLOAD,2024-01-05 11:07:48,14.98323447,0.0003134,69.9994,86.9498,271.185,88.8949,-3.5251e-05,-5.14e-06,0.0,0 STARLINK-5579,1 55746U 23028F   24005.46375046 -.00000514  00000-0 -35251-4 0  9990,2 55746  69.9994  86.9498 0003134 271.1850  88.8949 14.98323447 47073,6950.213,96.107,574.256,569.9,0.0
55746.0,STARLINK-5579,PAYLOAD,2024-01-05 14:20:04,14.98321364,0.0002824,70.0001,86.6132,267.7308,92.3528,-5.4239e-05,-7.4e-06,0.0,0 STARLINK-5579,1 55746U 23028F   24005.59727283 -.00000740  00000-0 -54239-4 0  9996,2 55746  70.0001  86.6132 0002824 267.7308  92.3528 14.98321364 47092,6950.22,96.108,574.047,570.122,0.0
55746.0,STARLINK-5579,PAYLOAD,2024-01-05 15:56:12,14.98321733,0.0002819,70.0001,86.4448,265.6746,94.4091,-5.1114e-05,-7.03e-06,0.0,0 STARLINK-5579,1 55746U 23028F   24005.66403255 -.00000703  00000-0 -51114-4 0  9992,2 55746  70.0001  86.4448 0002819 265.6746  94.4091 14.98321733 47107,6950.218,96.108,574.043,570.124,0.0
55746.0,STARLINK-5579,PAYLOAD,2024-01-06 04:45:17,14.98319448,0.0002417,70.0021,85.0992,262.6341,97.4544,-0.00015891,-1.988e-05,0.0,0 STARLINK-5579,1 55746U 23028F   24006.19812193 -.00001988  00000-0 -15891-3 0  9993,2 55746  70.0021  85.0992 0002417 262.6341  97.4544 14.98319448 47184,6950.226,96.108,573.77,570.411,0.0
55746.0,STARLINK-5579,PAYLOAD,2024-01-06 11:09:51,14.98309147,0.000338,69.9987,84.4231,277.0502,83.0272,-0.0002708,-3.321e-05,0.0,0 STARLINK-5579,1 55746U 23028F   24006.46517395 -.00003321  00000-0 -27080-3 0  9995,2 55746  69.9987  84.4231 0003380 277.0502  83.0272 14.98309147 47229,6950.257,96.108,574.472,569.773,0.0
55746.0,STARLINK-5579,PAYLOAD,2024-01-06 14:22:07,14.98304207,0.0002658,70.0004,84.0886,260.8667,99.2191,-0.00026817,-3.289e-05,0.0,0 STARLINK-5579,1 55746U 23028F   24006.59869830 -.00003289  00000-0 -26817-3 0  9993,2 55746  70.0004  84.0886 0002658 260.8667  99.2191 14.98304207 47246,6950.273,96.109,573.985,570.29,0.0
